{"type": "FeatureCollection", "features": [ {"type": "Feature", "properties": {"norad_id": 30662, "name": "FENGYUN 1C DEB", "group": "fengyun-1c-debris", "lat": 34.658445128264624, "lon": 35.117182734915154, "alt_km": 826.7381149564717, "timestamp": "2025-12-11T05:00:26.586512+00:00", "meta": {"OBJECT_NAME": "FENGYUN 1C DEB", "OBJECT_ID": "1999-025APU", "EPOCH": "2025-12-09T02:19:43.925952", "MEAN_MOTION": 14.22321832, "ECCENTRICITY": 0.00327932, "INCLINATION": 99.0534, "RA_OF_ASC_NODE": 39.2783, "ARG_OF_PERICENTER": 281.6226, "MEAN_ANOMALY": 107.1029, "EPHEMERIS_TYPE": 0, "CLASSIFICATION_TYPE": "U", "NORAD_CAT_ID": 30662, "ELEMENT_SET_NO": 999, "REV_AT_EPOCH": 96587, "BSTAR": 0.0018706914, "MEAN_MOTION_DOT": 4.137e-05, "MEAN_MOTION_DDOT": 0}, "tle": {"line1": "1 30662U 99025APU 25343.09703618  .00004137  00000+0  18707-2 0  9992", "line2": "2 30662  99.0534  39.2783 0032793 281.6226 107.1029 14.22321832965875"}}, "geometry": {"type": "Point", "coordinates": [35.117182734915154, 34.658445128264624]}}, {"type": "Feature", "properties": {"norad_id": 30663, "name": "FENGYUN 1C DEB", "group": "fengyun-1c-debris", "lat": 80.67363504438389, "lon": 168.67610356896918, "alt_km": 831.4444988646519, "timestamp": "2025-12-11T05:00:26.586522+00:00", "meta": {"OBJECT_NAME": "FENGYUN 1C DEB", "OBJECT_ID": "1999-025APV", "EPOCH": "2025-12-10T17:39:32.330304", "MEAN_MOTION": 13.23119607, "ECCENTRICITY": 0.06478185, "INCLINATION": 99.3025, "RA_OF_ASC_NODE": 261.8948, "ARG_OF_PERICENTER": 141.47, "MEAN_ANOMALY": 223.4554, "EPHEMERIS_TYPE": 0, "CLASSIFICATION_TYPE": "U", "NORAD_CAT_ID": 30663, "ELEMENT_SET_NO": 999, "REV_AT_EPOCH": 89021, "BSTAR": 0.0019128295, "MEAN_MOTION_DOT": 2.46e-05, "MEAN_MOTION_DDOT": 0}, "tle": {"line1": "1 30663U 99025APV 25344.73579086  .00002460  00000+0  19128-2 0  9990", "line2": "2 30663  99.3025 261.8948 0647818 141.4700 223.4554 13.23119607890215"}}, "geometry": {"type": "Point", "coordinates": [168.67610356896918, 80.67363504438389]}}, {"type": "Feature", "properties": {"norad_id": 30665, "name": "FENGYUN 1C DEB", "group": "fengyun-1c-debris", "lat": 10.354276540080726, "lon": 138.4658473988372, "alt_km": 813.9559536416273, "timestamp": "2025-12-11T05:00:26.586532+00:00", "meta": {"OBJECT_NAME": "FENGYUN 1C DEB", "OBJECT_ID": "1999-025APX", "EPOCH": "2025-12-10T21:32:09.230784", "MEAN_MOTION": 14.12324162, "ECCENTRICITY": 0.00676383, "INCLINATION": 99.2094, "RA_OF_ASC_NODE": 316.4475, "ARG_OF_PERICENTER": 207.7932, "MEAN_ANOMALY": 180.1188, "EPHEMERIS_TYPE": 0, "CLASSIFICATION_TYPE": "U", "NORAD_CAT_ID": 30665, "ELEMENT_SET_NO": 999, "REV_AT_EPOCH": 95944, "BSTAR": 0.0021963801, "MEAN_MOTION_DOT": 4.088e-05, "MEAN_MOTION_DDOT": 0}, "tle": {"line1": "1 30665U 99025APX 25344.89732906  .00004088  00000+0  21964-2 0  9990", "line2": "2 30665  99.2094 316.4475 0067638 207.7932 180.1188 14.12324162959449"}}, "geometry": {"type": "Point", "coordinates": [138.4658473988372, 10.354276540080726]}}, {"type": "Feature", "properties": {"norad_id": 30666, "name": "FENGYUN 1C DEB", "group": "fengyun-1c-debris", "lat": 32.969115468791074, "lon": -36.90774880120611, "alt_km": 901.186455021616, "timestamp": "2025-12-11T05:00:26.586542+00:00", "meta": {"OBJECT_NAME": "FENGYUN 1C DEB", "OBJECT_ID": "1999-025APY", "EPOCH": "2025-12-10T17:42:28.536192", "MEAN_MOTION": 14.02553465, "ECCENTRICITY": 0.00610786, "INCLINATION": 98.8223, "RA_OF_ASC_NODE": 328.4179, "ARG_OF_PERICENTER": 149.4991, "MEAN_ANOMALY": 28.7444, "EPHEMERIS_TYPE": 0, "CLASSIFICATION_TYPE": "U", "NORAD_CAT_ID": 30666, "ELEMENT_SET_NO": 999, "REV_AT_EPOCH": 96082, "BSTAR": 0.00027686902, "MEAN_MOTION_DOT": 3.91e-06, "MEAN_MOTION_DDOT": 0}, "tle": {"line1": "1 30666U 99025APY 25344.73783028  .00000391  00000+0  27687-3 0  9997", "line2": "2 30666  98.8223 328.4179 0061078 149.4991  28.7444 14.02553465960827"}}, "geometry": {"type": "Point", "coordinates": [-36.90774880120611, 32.969115468791074]}}, {"type": "Feature", "properties": {"norad_id": 30668, "name": "FENGYUN 1C DEB", "group": "fengyun-1c-debris", "lat": -77.76161167630593, "lon": -169.60807220391214, "alt_km": 802.6717685528401, "timestamp": "2025-12-11T05:00:26.586552+00:00", "meta": {"OBJECT_NAME": "FENGYUN 1C DEB", "OBJECT_ID": "1999-025AQA", "EPOCH": "2025-12-10T04:06:10.389312", "MEAN_MOTION": 14.12300948, "ECCENTRICITY": 0.00791194, "INCLINATION": 99.1293, "RA_OF_ASC_NODE": 57.1798, "ARG_OF_PERICENTER": 253.3601, "MEAN_ANOMALY": 135.2641, "EPHEMERIS_TYPE": 0, "CLASSIFICATION_TYPE": "U", "NORAD_CAT_ID": 30668, "ELEMENT_SET_NO": 999, "REV_AT_EPOCH": 96019, "BSTAR": 0.0024476041, "MEAN_MOTION_DOT": 4.596e-05, "MEAN_MOTION_DDOT": 0}, "tle": {"line1": "1 30668U 99025AQA 25344.17095358  .00004596  00000+0  24476-2 0  9992", "line2": "2 30668  99.1293  57.1798 0079119 253.3601 135.2641 14.12300948960191"}}, "geometry": {"type": "Point", "coordinates": [-169.60807220391214, -77.76161167630593]}}, {"type": "Feature", "properties": {"norad_id": 30669, "name": "FENGYUN 1C DEB", "group": "fengyun-1c-debris", "lat": 10.127270936262098, "lon": -79.5981873039028, "alt_km": 970.1509116801626, "timestamp": "2025-12-11T05:00:26.586562+00:00", "meta": {"OBJECT_NAME": "FENGYUN 1C DEB", "OBJECT_ID": "1999-025AQB", "EPOCH": "2025-12-09T09:03:08.025408", "MEAN_MOTION": 14.02706472, "ECCENTRICITY": 0.0117622, "INCLINATION": 98.6338, "RA_OF_ASC_NODE": 280.2201, "ARG_OF_PERICENTER": 186.1119, "MEAN_ANOMALY": 301.1451, "EPHEMERIS_TYPE": 0, "CLASSIFICATION_TYPE": "U", "NORAD_CAT_ID": 30669, "ELEMENT_SET_NO": 999, "REV_AT_EPOCH": 95406, "BSTAR": 0.0017012748, "MEAN_MOTION_DOT": 2.752e-05, "MEAN_MOTION_DDOT": 0}, "tle": {"line1": "1 30669U 99025AQB 25343.37717622  .00002752  00000+0  17013-2 0  9990", "line2": "2 30669  98.6338 280.2201 0117622 186.1119 301.1451 14.02706472954066"}}, "geometry": {"type": "Point", "coordinates": [-79.5981873039028, 10.127270936262098]}}, {"type": "Feature", "properties": {"norad_id": 30670, "name": "FENGYUN 1C DEB", "group": "fengyun-1c-debris", "lat": -41.809647478255805, "lon": -158.20940074157764, "alt_km": 870.6161650794465, "timestamp": "2025-12-11T05:00:26.586572+00:00", "meta": {"OBJECT_NAME": "FENGYUN 1C DEB", "OBJECT_ID": "1999-025AQC", "EPOCH": "2025-12-10T19:45:42.198048", "MEAN_MOTION": 14.15816111, "ECCENTRICITY": 0.00399453, "INCLINATION": 98.7112, "RA_OF_ASC_NODE": 29.2958, "ARG_OF_PERICENTER": 74.9968, "MEAN_ANOMALY": 344.6597, "EPHEMERIS_TYPE": 0, "CLASSIFICATION_TYPE": "U", "NORAD_CAT_ID": 30670, "ELEMENT_SET_NO": 999, "REV_AT_EPOCH": 97125, "BSTAR": 0.0001328928, "MEAN_MOTION_DOT": 2.2e-06, "MEAN_MOTION_DDOT": 0}, "tle": {"line1": "1 30670U 99025AQC 25344.82340507  .00000220  00000+0  13289-3 0  9997", "line2": "2 30670  98.7112  29.2958 0039945  74.9968 344.6597 14.15816111971255"}}, "geometry": {"type": "Point", "coordinates": [-158.20940074157764, -41.809647478255805]}}, {"type": "Feature", "properties": {"norad_id": 30671, "name": "FENGYUN 1C DEB", "group": "fengyun-1c-debris", "lat": -62.38479253961557, "lon": 68.06907631388819, "alt_km": 933.6358449413929, "timestamp": "2025-12-11T05:00:26.586582+00:00", "meta": {"OBJECT_NAME": "FENGYUN 1C DEB", "OBJECT_ID": "1999-025AQD", "EPOCH": "2025-12-10T20:59:17.625984", "MEAN_MOTION": 13.95450914, "ECCENTRICITY": 0.01261443, "INCLINATION": 99.2525, "RA_OF_ASC_NODE": 49.578, "ARG_OF_PERICENTER": 38.4132, "MEAN_ANOMALY": 21.553, "EPHEMERIS_TYPE": 0, "CLASSIFICATION_TYPE": "U", "NORAD_CAT_ID": 30671, "ELEMENT_SET_NO": 999, "REV_AT_EPOCH": 95169, "BSTAR": 0.0014923973, "MEAN_MOTION_DOT": 2.12e-05, "MEAN_MOTION_DDOT": 0}, "tle": {"line1": "1 30671U 99025AQD 25344.87450956  .00002120  00000+0  14924-2 0  9990", "line2": "2 30671  99.2525  49.5780 0126144  38.4132  21.5530 13.95450914951690"}}, "geometry": {"type": "Point", "coordinates": [68.06907631388819, -62.38479253961557]}}, {"type": "Feature", "properties": {"norad_id": 30673, "name": "FENGYUN 1C DEB", "group": "fengyun-1c-debris", "lat": 69.64675897876624, "lon": 9.350514901409678, "alt_km": 865.139229869189, "timestamp": "2025-12-11T05:00:26.586592+00:00", "meta": {"OBJECT_NAME": "FENGYUN 1C DEB", "OBJECT_ID": "1999-025AQF", "EPOCH": "2025-12-10T09:55:20.778816", "MEAN_MOTION": 14.03455299, "ECCENTRICITY": 0.00525479, "INCLINATION": 98.9207, "RA_OF_ASC_NODE": 33.6196, "ARG_OF_PERICENTER": 149.0986, "MEAN_ANOMALY": 227.6334, "EPHEMERIS_TYPE": 0, "CLASSIFICATION_TYPE": "U", "NORAD_CAT_ID": 30673, "ELEMENT_SET_NO": 999, "REV_AT_EPOCH": 96499, "BSTAR": 0.00021868552, "MEAN_MOTION_DOT": 3.03e-06, "MEAN_MOTION_DDOT": 0}, "tle": {"line1": "1 30673U 99025AQF 25344.41343494  .00000303  00000+0  21869-3 0  9998", "line2": "2 30673  98.9207  33.6196 0052547 149.0986 227.6334 14.03455299964990"}}, "geometry": {"type": "Point", "coordinates": [9.350514901409678, 69.64675897876624]}}, {"type": "Feature", "properties": {"norad_id": 30674, "name": "FENGYUN 1C DEB", "group": "fengyun-1c-debris", "lat": -70.01097089221855, "lon": -57.84457916297061, "alt_km": 578.2739892097743, "timestamp": "2025-12-11T05:00:26.586606+00:00", "meta": {"OBJECT_NAME": "FENGYUN 1C DEB", "OBJECT_ID": "1999-025AQG", "EPOCH": "2025-12-10T10:12:50.966496", "MEAN_MOTION": 14.95079974, "ECCENTRICITY": 0.00249541, "INCLINATION": 98.942, "RA_OF_ASC_NODE": 146.9126, "ARG_OF_PERICENTER": 307.3658, "MEAN_ANOMALY": 52.5287, "EPHEMERIS_TYPE": 0, "CLASSIFICATION_TYPE": "U", "NORAD_CAT_ID": 30674, "ELEMENT_SET_NO": 999, "REV_AT_EPOCH": 97317, "BSTAR": 0.010789147, "MEAN_MOTION_DOT": 0.00120856, "MEAN_MOTION_DDOT": 0}, "tle": {"line1": "1 30674U 99025AQG 25344.42558989  .00120856  00000+0  10789-1 0  9990", "line2": "2 30674  98.9420 146.9126 0024954 307.3658  52.5287 14.95079974973170"}}, "geometry": {"type": "Point", "coordinates": [-57.84457916297061, -70.01097089221855]}}]}